STARLINK-2257           
1 47787U 21018A   26068.72604549 -.00001022  00000+0 -22395-4 0  9995
2 47787  53.1595 245.1686 0001224  89.9599 270.1542 15.30195877276690
SKYKRAFT-1A             
1 55054U 23001AX  26068.71064616  .00008177  00000+0  30069-3 0  9991
2 55054  97.3349 127.6290 0011277 121.5092 238.7251 15.28083228176529
